CCSDS_OMM_VERS = 2.0
CREATION_DATE  = 
ORIGINATOR     = 

OBJECT_NAME    = UNKNOWN
OBJECT_ID      = 
CENTER_NAME    = EARTH
REF_FRAME      = TEME
TIME_SYSTEM    = UTC
MEAN_ELEMENT_THEORY = SGP/SGP4

EPOCH          = 2026-03-13T14:32:00.685536
MEAN_MOTION    = 13.00970948
ECCENTRICITY   = .005963
INCLINATION    = 102.3707
RA_OF_ASC_NODE = 321.3137
ARG_OF_PERICENTER = 26.5666
MEAN_ANOMALY   = 333.8466

EPHEMERIS_TYPE = 0
CLASSIFICATION_TYPE = U
NORAD_CAT_ID   = 87782
ELEMENT_SET_NO = 999
REV_AT_EPOCH   = 57980
BSTAR          = .12797E-1
MEAN_MOTION_DOT = .3885E-4
MEAN_MOTION_DDOT = 0

CCSDS_OMM_VERS = 2.0
CREATION_DATE  = 
ORIGINATOR     = 

OBJECT_NAME    = UNKNOWN
OBJECT_ID      = 
CENTER_NAME    = EARTH
REF_FRAME      = TEME
TIME_SYSTEM    = UTC
MEAN_ELEMENT_THEORY = SGP/SGP4

EPOCH          = 2026-03-08T13:08:37.169088
MEAN_MOTION    = 13.16964650
ECCENTRICITY   = .0246927
INCLINATION    = 99.6563
RA_OF_ASC_NODE = 179.4810
ARG_OF_PERICENTER = 164.5334
MEAN_ANOMALY   = 196.3503

EPHEMERIS_TYPE = 0
CLASSIFICATION_TYPE = U
NORAD_CAT_ID   = 87843
ELEMENT_SET_NO = 999
REV_AT_EPOCH   = 57545
BSTAR          = .51608E-2
MEAN_MOTION_DOT = .2283E-4
MEAN_MOTION_DDOT = 0

CCSDS_OMM_VERS = 2.0
CREATION_DATE  = 
ORIGINATOR     = 

OBJECT_NAME    = UNKNOWN
OBJECT_ID      = 
CENTER_NAME    = EARTH
REF_FRAME      = TEME
TIME_SYSTEM    = UTC
MEAN_ELEMENT_THEORY = SGP/SGP4

EPOCH          = 2026-03-12T19:09:59.157504
MEAN_MOTION    = 12.89309278
ECCENTRICITY   = .0579911
INCLINATION    = 98.8675
RA_OF_ASC_NODE = 16.6878
ARG_OF_PERICENTER = 46.2646
MEAN_ANOMALY   = 318.4993

EPHEMERIS_TYPE = 0
CLASSIFICATION_TYPE = U
NORAD_CAT_ID   = 87845
ELEMENT_SET_NO = 999
REV_AT_EPOCH   = 57681
BSTAR          = .52703E-2
MEAN_MOTION_DOT = .2846E-4
MEAN_MOTION_DDOT = 0

CCSDS_OMM_VERS = 2.0
CREATION_DATE  = 
ORIGINATOR     = 

OBJECT_NAME    = UNKNOWN
OBJECT_ID      = 
CENTER_NAME    = EARTH
REF_FRAME      = TEME
TIME_SYSTEM    = UTC
MEAN_ELEMENT_THEORY = SGP/SGP4

EPOCH          = 2026-03-12T14:48:43.285824
MEAN_MOTION    = 14.41531808
ECCENTRICITY   = .0033827
INCLINATION    = 99.1604
RA_OF_ASC_NODE = 202.4835
ARG_OF_PERICENTER = 3.1070
MEAN_ANOMALY   = 357.0321

EPHEMERIS_TYPE = 0
CLASSIFICATION_TYPE = U
NORAD_CAT_ID   = 87878
ELEMENT_SET_NO = 999
REV_AT_EPOCH   = 62424
BSTAR          = .11111E-2
MEAN_MOTION_DOT = .3586E-4
MEAN_MOTION_DDOT = 0

CCSDS_OMM_VERS = 2.0
CREATION_DATE  = 
ORIGINATOR     = 

OBJECT_NAME    = UNKNOWN
OBJECT_ID      = 
CENTER_NAME    = EARTH
REF_FRAME      = TEME
TIME_SYSTEM    = UTC
MEAN_ELEMENT_THEORY = SGP/SGP4

EPOCH          = 2026-03-07T18:09:48.202560
MEAN_MOTION    = 14.06051301
ECCENTRICITY   = .0154006
INCLINATION    = 98.7313
RA_OF_ASC_NODE = 172.6216
ARG_OF_PERICENTER = 188.6266
MEAN_ANOMALY   = 171.2251

EPHEMERIS_TYPE = 0
CLASSIFICATION_TYPE = U
NORAD_CAT_ID   = 87884
ELEMENT_SET_NO = 999
REV_AT_EPOCH   = 63031
BSTAR          = .1623E-3
MEAN_MOTION_DOT = .254E-5
MEAN_MOTION_DDOT = 0

CCSDS_OMM_VERS = 2.0
CREATION_DATE  = 
ORIGINATOR     = 

OBJECT_NAME    = UNKNOWN
OBJECT_ID      = 
CENTER_NAME    = EARTH
REF_FRAME      = TEME
TIME_SYSTEM    = UTC
MEAN_ELEMENT_THEORY = SGP/SGP4

EPOCH          = 2026-02-27T21:39:39.353184
MEAN_MOTION    = 12.35692323
ECCENTRICITY   = .0895898
INCLINATION    = 28.6287
RA_OF_ASC_NODE = 295.8565
ARG_OF_PERICENTER = 205.1452
MEAN_ANOMALY   = 150.2727

EPHEMERIS_TYPE = 0
CLASSIFICATION_TYPE = U
NORAD_CAT_ID   = 87991
ELEMENT_SET_NO = 999
REV_AT_EPOCH   = 53254
BSTAR          = .77235E-2
MEAN_MOTION_DOT = .4024E-4
MEAN_MOTION_DDOT = 0

CCSDS_OMM_VERS = 2.0
CREATION_DATE  = 
ORIGINATOR     = 

OBJECT_NAME    = UNKNOWN
OBJECT_ID      = 2025-241B
CENTER_NAME    = EARTH
REF_FRAME      = TEME
TIME_SYSTEM    = UTC
MEAN_ELEMENT_THEORY = SGP/SGP4

EPOCH          = 2026-03-12T07:26:41.133120
MEAN_MOTION    = 15.22421637
ECCENTRICITY   = .0004576
INCLINATION    = 51.6301
RA_OF_ASC_NODE = 60.3795
ARG_OF_PERICENTER = 163.6979
MEAN_ANOMALY   = 196.4146

EPHEMERIS_TYPE = 0
CLASSIFICATION_TYPE = U
NORAD_CAT_ID   = 88780
ELEMENT_SET_NO = 999
REV_AT_EPOCH   = 14
BSTAR          = .4558E-3
MEAN_MOTION_DOT = .10367E-3
MEAN_MOTION_DDOT = 0

CCSDS_OMM_VERS = 2.0
CREATION_DATE  = 
ORIGINATOR     = 

OBJECT_NAME    = UNKNOWN
OBJECT_ID      = 
CENTER_NAME    = EARTH
REF_FRAME      = TEME
TIME_SYSTEM    = UTC
MEAN_ELEMENT_THEORY = SGP/SGP4

EPOCH          = 2026-03-13T11:13:25.005792
MEAN_MOTION    = 14.46318521
ECCENTRICITY   = .0190861
INCLINATION    = 97.8430
RA_OF_ASC_NODE = 259.8617
ARG_OF_PERICENTER = 112.1491
MEAN_ANOMALY   = 250.0081

EPHEMERIS_TYPE = 0
CLASSIFICATION_TYPE = U
NORAD_CAT_ID   = 89005
ELEMENT_SET_NO = 999
REV_AT_EPOCH   = 54720
BSTAR          = .7943E-3
MEAN_MOTION_DOT = .353E-4
MEAN_MOTION_DDOT = 0

CCSDS_OMM_VERS = 2.0
CREATION_DATE  = 
ORIGINATOR     = 

OBJECT_NAME    = UNKNOWN
OBJECT_ID      = 
CENTER_NAME    = EARTH
REF_FRAME      = TEME
TIME_SYSTEM    = UTC
MEAN_ELEMENT_THEORY = SGP/SGP4

EPOCH          = 2026-03-09T15:19:13.374336
MEAN_MOTION    = 13.04039918
ECCENTRICITY   = .0146757
INCLINATION    = 100.4746
RA_OF_ASC_NODE = 7.6140
ARG_OF_PERICENTER = 274.7181
MEAN_ANOMALY   = 83.7178

EPHEMERIS_TYPE = 0
CLASSIFICATION_TYPE = U
NORAD_CAT_ID   = 89101
ELEMENT_SET_NO = 999
REV_AT_EPOCH   = 56617
BSTAR          = -.22144E-3
MEAN_MOTION_DOT = -.119E-5
MEAN_MOTION_DDOT = 0

CCSDS_OMM_VERS = 2.0
CREATION_DATE  = 
ORIGINATOR     = 

OBJECT_NAME    = UNKNOWN
OBJECT_ID      = 
CENTER_NAME    = EARTH
REF_FRAME      = TEME
TIME_SYSTEM    = UTC
MEAN_ELEMENT_THEORY = SGP/SGP4

EPOCH          = 2026-03-10T15:50:42.813600
MEAN_MOTION    = 8.87978578
ECCENTRICITY   = .2929755
INCLINATION    = 63.4375
RA_OF_ASC_NODE = 308.1692
ARG_OF_PERICENTER = 319.6350
MEAN_ANOMALY   = 21.9696

EPHEMERIS_TYPE = 0
CLASSIFICATION_TYPE = U
NORAD_CAT_ID   = 89132
ELEMENT_SET_NO = 999
REV_AT_EPOCH   = 33291
BSTAR          = .37514E-2
MEAN_MOTION_DOT = .2902E-4
MEAN_MOTION_DDOT = 0

CCSDS_OMM_VERS = 2.0
CREATION_DATE  = 
ORIGINATOR     = 

OBJECT_NAME    = UNKNOWN
OBJECT_ID      = 
CENTER_NAME    = EARTH
REF_FRAME      = TEME
TIME_SYSTEM    = UTC
MEAN_ELEMENT_THEORY = SGP/SGP4

EPOCH          = 2026-03-12T14:46:37.175520
MEAN_MOTION    = 14.64022162
ECCENTRICITY   = .0092554
INCLINATION    = 98.2529
RA_OF_ASC_NODE = 5.4218
ARG_OF_PERICENTER = 133.1100
MEAN_ANOMALY   = 227.7892

EPHEMERIS_TYPE = 0
CLASSIFICATION_TYPE = U
NORAD_CAT_ID   = 89146
ELEMENT_SET_NO = 999
REV_AT_EPOCH   = 64202
BSTAR          = .69486E-3
MEAN_MOTION_DOT = .3826E-4
MEAN_MOTION_DDOT = 0

CCSDS_OMM_VERS = 2.0
CREATION_DATE  = 
ORIGINATOR     = 

OBJECT_NAME    = UNKNOWN
OBJECT_ID      = 
CENTER_NAME    = EARTH
REF_FRAME      = TEME
TIME_SYSTEM    = UTC
MEAN_ELEMENT_THEORY = SGP/SGP4

EPOCH          = 2026-03-13T12:51:39.046176
MEAN_MOTION    = 15.81031315
ECCENTRICITY   = .001624
INCLINATION    = 97.6344
RA_OF_ASC_NODE = 99.3750
ARG_OF_PERICENTER = 106.3836
MEAN_ANOMALY   = 253.9218

EPHEMERIS_TYPE = 0
CLASSIFICATION_TYPE = U
NORAD_CAT_ID   = 89161
ELEMENT_SET_NO = 999
REV_AT_EPOCH   = 56268
BSTAR          = .38778E-2
MEAN_MOTION_DOT = .830036E-2
MEAN_MOTION_DDOT = 0

