UNKNOWN                 
1 87782U          26072.60556349  .00003885  00000+0  12797-1 0  9997
2 87782 102.3707 321.3137 0059630  26.5666 333.8466 13.00970948579801
UNKNOWN                 
1 87843U          26067.54765242  .00002283  00000+0  51608-2 0  9992
2 87843  99.6563 179.4810 0246927 164.5334 196.3503 13.16964650575450
UNKNOWN                 
1 87845U          26071.79860136  .00002846  00000+0  52703-2 0  9996
2 87845  98.8675  16.6878 0579911  46.2646 318.4993 12.89309278576816
UNKNOWN                 
1 87878U          26071.61716766  .00003586  00000+0  11111-2 0  9992
2 87878  99.1604 202.4835 0033827   3.1070 357.0321 14.41531808624241
UNKNOWN                 
1 87884U          26066.75680790  .00000254  00000+0  16230-3 0  9992
2 87884  98.7313 172.6216 0154006 188.6266 171.2251 14.06051301630319
UNKNOWN                 
1 87991U          26058.90253881  .00004024  00000+0  77235-2 0  9996
2 87991  28.6287 295.8565 0895898 205.1452 150.2727 12.35692323532544
UNKNOWN                 
1 88780U 25241B   26071.31019830  .00010367  00000+0  45580-3 0  9997
2 88780  51.6301  60.3795 0004576 163.6979 196.4146 15.22421637   141
UNKNOWN                 
1 89005U          26072.46765053  .00003530  00000+0  79430-3 0  9991
2 89005  97.8430 259.8617 0190861 112.1491 250.0081 14.46318521547206
UNKNOWN                 
1 89101U          26068.63834924 -.00000119  00000+0 -22144-3 0  9998
2 89101 100.4746   7.6140 0146757 274.7181  83.7178 13.04039918566178
UNKNOWN                 
1 89132U          26069.66021775  .00002902  00000+0  37514-2 0  9994
2 89132  63.4375 308.1692 2929755 319.6350  21.9696  8.87978578332916
UNKNOWN                 
1 89146U          26071.61570805  .00003826  00000+0  69486-3 0  9990
2 89146  98.2529   5.4218 0092554 133.1100 227.7892 14.64022162642028
UNKNOWN                 
1 89161U          26072.53586859  .00830036  00000+0  38778-2 0  9995
2 89161  97.6344  99.3750 0016240 106.3836 253.9218 15.81031315562688
